start=new Date('2022-07-28T00:00:00.000Z').valueOf();
sats=[{"GP_ID":"209001759","NORAD_CAT_ID":"53081","ELEMENT_SET_NO":"999","REF_FRAME":"TEME","RA_OF_ASC_NODE":"28.0054","SEMIMAJOR_AXIS":"6767.251","DECAY_DATE":null,"REV_AT_EPOCH":"130","BSTAR":"-0.01954000000000","MEAN_ELEMENT_THEORY":"SGP4","MEAN_MOTION_DOT":"-0.01392385","OBJECT_ID":"2022-077AQ","EPOCH":"2022-07-27T22:00:00.999936","SITE":"AFWTR","PERIOD":"92.337","TLE_LINE1":"1 53081U 22077AQ  22208.91667824 -.01392385  00000-0 -19540-1 0  9995","RCS_SIZE":"LARGE","ARG_OF_PERICENTER":"89.2078","MEAN_MOTION":"15.59496418","CENTER_NAME":"EARTH","LAUNCH_DATE":"2022-07-11","MEAN_ANOMALY":"351.7116","EPHEMERIS_TYPE":"0","ECCENTRICITY":"0.00016640","TLE_LINE2":"2 53081  97.6553  28.0054 0001664  89.2078 351.7116 15.59496418  1304","TIME_SYSTEM":"UTC","MEAN_MOTION_DDOT":"0.0000000000000","FILE":"3523323","APOAPSIS":"390.242","INCLINATION":"97.6553","OBJECT_NAME":"STARLINK-4326","COUNTRY_CODE":"US","OBJECT_TYPE":"PAYLOAD","CLASSIFICATION_TYPE":"U","PERIAPSIS":"387.989"},{"EPHEMERIS_TYPE":"0","MEAN_ANOMALY":"355.9639","MEAN_MOTION_DDOT":"0.0000000000000","TIME_SYSTEM":"UTC","TLE_LINE2":"2 53082  97.6553  28.0056 0001673  84.2529 355.9639 15.59488314  1305","ECCENTRICITY":"0.00016730","LAUNCH_DATE":"2022-07-11","CENTER_NAME":"EARTH","OBJECT_NAME":"STARLINK-4321","PERIAPSIS":"388.007","CLASSIFICATION_TYPE":"U","COUNTRY_CODE":"US","OBJECT_TYPE":"PAYLOAD","FILE":"3523323","INCLINATION":"97.6553","APOAPSIS":"390.271","BSTAR":"-0.01955000000000","MEAN_ELEMENT_THEORY":"SGP4","REV_AT_EPOCH":"130","DECAY_DATE":null,"SITE":"AFWTR","EPOCH":"2022-07-27T22:00:00.999936","MEAN_MOTION_DOT":"-0.01392644","OBJECT_ID":"2022-077AR","GP_ID":"209002476","NORAD_CAT_ID":"53082","SEMIMAJOR_AXIS":"6767.274","RA_OF_ASC_NODE":"28.0056","REF_FRAME":"TEME","ELEMENT_SET_NO":"999","ARG_OF_PERICENTER":"84.2529","RCS_SIZE":"LARGE","MEAN_MOTION":"15.59488314","PERIOD":"92.338","TLE_LINE1":"1 53082U 22077AR  22208.91667824 -.01392644  00000-0 -19550-1 0  9995"},{"TLE_LINE1":"1 53083U 22077AS  22208.91667824 -.01389452  00000-0 -23077-1 0  9998","PERIOD":"92.605","RCS_SIZE":"LARGE","ARG_OF_PERICENTER":"82.5263","MEAN_MOTION":"15.54995218","RA_OF_ASC_NODE":"28.0179","SEMIMAJOR_AXIS":"6780.304","ELEMENT_SET_NO":"999","REF_FRAME":"TEME","GP_ID":"209001878","NORAD_CAT_ID":"53083","SITE":"AFWTR","EPOCH":"2022-07-27T22:00:00.999936","MEAN_MOTION_DOT":"-0.01389452","OBJECT_ID":"2022-077AS","REV_AT_EPOCH":"130","MEAN_ELEMENT_THEORY":"SGP4","BSTAR":"-0.02307700000000","DECAY_DATE":null,"INCLINATION":"97.6553","APOAPSIS":"403.248","FILE":"3523323","OBJECT_TYPE":"PAYLOAD","COUNTRY_CODE":"US","CLASSIFICATION_TYPE":"U","PERIAPSIS":"401.089","OBJECT_NAME":"STARLINK-4251","LAUNCH_DATE":"2022-07-11","CENTER_NAME":"EARTH","TIME_SYSTEM":"UTC","MEAN_MOTION_DDOT":"0.0000000000000","TLE_LINE2":"2 53083  97.6553  28.0179 0001592  82.5263 307.5816 15.54995218  1309","ECCENTRICITY":"0.00015920","EPHEMERIS_TYPE":"0","MEAN_ANOMALY":"307.5816"},{"OBJECT_ID":"2022-077AT","MEAN_MOTION_DOT":"-0.01392196","EPOCH":"2022-07-27T22:00:00.999936","SITE":"AFWTR","DECAY_DATE":null,"MEAN_ELEMENT_THEORY":"SGP4","BSTAR":"-0.01953100000000","REV_AT_EPOCH":"323","ELEMENT_SET_NO":"999","REF_FRAME":"TEME","SEMIMAJOR_AXIS":"6767.227","RA_OF_ASC_NODE":"28.0055","GP_ID":"208973289","NORAD_CAT_ID":"53084","RCS_SIZE":"LARGE","ARG_OF_PERICENTER":"92.9913","MEAN_MOTION":"15.59504544","TLE_LINE1":"1 53084U 22077AT  22208.91667824 -.01392196  00000-0 -19531-1 0  9998","PERIOD":"92.337","ECCENTRICITY":"0.00016640","TLE_LINE2":"2 53084  97.6553  28.0055 0001664  92.9913 348.6307 15.59504544  3238","MEAN_MOTION_DDOT":"0.0000000000000","TIME_SYSTEM":"UTC","MEAN_ANOMALY":"348.6307","EPHEMERIS_TYPE":"0","CENTER_NAME":"EARTH","LAUNCH_DATE":"2022-07-11","PERIAPSIS":"387.966","COUNTRY_CODE":"US","CLASSIFICATION_TYPE":"U","OBJECT_TYPE":"PAYLOAD","OBJECT_NAME":"STARLINK-4319","APOAPSIS":"390.218","INCLINATION":"97.6553","FILE":"3523157"},{"ELEMENT_SET_NO":"999","REF_FRAME":"TEME","RA_OF_ASC_NODE":"28.0050","SEMIMAJOR_AXIS":"6767.199","GP_ID":"209002116","NORAD_CAT_ID":"53085","OBJECT_ID":"2022-077AU","MEAN_MOTION_DOT":"-0.01393069","EPOCH":"2022-07-27T22:00:00.999936","SITE":"AFWTR","DECAY_DATE":null,"REV_AT_EPOCH":"130","BSTAR":"-0.01953700000000","MEAN_ELEMENT_THEORY":"SGP4","TLE_LINE1":"1 53085U 22077AU  22208.91667824 -.01393069  00000-0 -19537-1 0  9995","PERIOD":"92.336","RCS_SIZE":"LARGE","MEAN_MOTION":"15.59514294","ARG_OF_PERICENTER":"77.5526","CENTER_NAME":"EARTH","LAUNCH_DATE":"2022-07-11","ECCENTRICITY":"0.00017080","TLE_LINE2":"2 53085  97.6553  28.0050 0001708  77.5526   5.9772 15.59514294  1300","TIME_SYSTEM":"UTC","MEAN_MOTION_DDOT":"0.0000000000000","MEAN_ANOMALY":"5.9772","EPHEMERIS_TYPE":"0","APOAPSIS":"390.220","INCLINATION":"97.6553","FILE":"3523323","COUNTRY_CODE":"US","CLASSIFICATION_TYPE":"U","OBJECT_TYPE":"PAYLOAD","PERIAPSIS":"387.908","OBJECT_NAME":"STARLINK-4324"},{"PERIOD":"92.337","TLE_LINE1":"1 53086U 22077AV  22208.91667824 -.01392514  00000-0 -19535-1 0  9998","RCS_SIZE":"LARGE","MEAN_MOTION":"15.59505751","ARG_OF_PERICENTER":"88.1573","NORAD_CAT_ID":"53086","GP_ID":"209002364","SEMIMAJOR_AXIS":"6767.224","RA_OF_ASC_NODE":"28.0053","REF_FRAME":"TEME","ELEMENT_SET_NO":"999","BSTAR":"-0.01953500000000","MEAN_ELEMENT_THEORY":"SGP4","REV_AT_EPOCH":"130","DECAY_DATE":null,"SITE":"AFWTR","EPOCH":"2022-07-27T22:00:00.999936","MEAN_MOTION_DOT":"-0.01392514","OBJECT_ID":"2022-077AV","FILE":"3523323","INCLINATION":"97.6553","APOAPSIS":"390.219","OBJECT_NAME":"STARLINK-4318","PERIAPSIS":"387.958","COUNTRY_CODE":"US","OBJECT_TYPE":"PAYLOAD","CLASSIFICATION_TYPE":"U","LAUNCH_DATE":"2022-07-11","CENTER_NAME":"EARTH","EPHEMERIS_TYPE":"0","MEAN_ANOMALY":"354.6701","MEAN_MOTION_DDOT":"0.0000000000000","TIME_SYSTEM":"UTC","ECCENTRICITY":"0.00016710","TLE_LINE2":"2 53086  97.6553  28.0053 0001671  88.1573 354.6701 15.59505751  1307"},{"FILE":"3523323","APOAPSIS":"390.161","INCLINATION":"97.6553","OBJECT_NAME":"STARLINK-4329","COUNTRY_CODE":"US","CLASSIFICATION_TYPE":"U","OBJECT_TYPE":"PAYLOAD","PERIAPSIS":"387.872","CENTER_NAME":"EARTH","LAUNCH_DATE":"2022-07-11","MEAN_ANOMALY":"2.7871","EPHEMERIS_TYPE":"0","TLE_LINE2":"2 53087  97.6553  28.0043 0001691  82.1474   2.7871 15.59530695  1307","ECCENTRICITY":"0.00016910","TIME_SYSTEM":"UTC","MEAN_MOTION_DDOT":"0.0000000000000","PERIOD":"92.335","TLE_LINE1":"1 53087U 22077AW  22208.91667824 -.01392882  00000-0 -19522-1 0  9993","RCS_SIZE":"LARGE","MEAN_MOTION":"15.59530695","ARG_OF_PERICENTER":"82.1474","GP_ID":"209002235","NORAD_CAT_ID":"53087","REF_FRAME":"TEME","ELEMENT_SET_NO":"999","RA_OF_ASC_NODE":"28.0043","SEMIMAJOR_AXIS":"6767.151","DECAY_DATE":null,"REV_AT_EPOCH":"130","BSTAR":"-0.01952200000000","MEAN_ELEMENT_THEORY":"SGP4","EPOCH":"2022-07-27T22:00:00.999936","MEAN_MOTION_DOT":"-0.01392882","OBJECT_ID":"2022-077AW","SITE":"AFWTR"},{"RCS_SIZE":"LARGE","MEAN_MOTION":"15.59522523","ARG_OF_PERICENTER":"78.7073","TLE_LINE1":"1 53088U 22077AX  22208.91667824 -.01393011  00000-0 -19530-1 0  9998","PERIOD":"92.336","EPOCH":"2022-07-27T22:00:00.999936","MEAN_MOTION_DOT":"-0.01393011","OBJECT_ID":"2022-077AX","SITE":"AFWTR","DECAY_DATE":null,"BSTAR":"-0.01953000000000","MEAN_ELEMENT_THEORY":"SGP4","REV_AT_EPOCH":"130","ELEMENT_SET_NO":"999","REF_FRAME":"TEME","SEMIMAJOR_AXIS":"6767.175","RA_OF_ASC_NODE":"28.0044","GP_ID":"209001639","NORAD_CAT_ID":"53088","PERIAPSIS":"387.887","COUNTRY_CODE":"US","OBJECT_TYPE":"PAYLOAD","CLASSIFICATION_TYPE":"U","OBJECT_NAME":"STARLINK-4333","APOAPSIS":"390.193","INCLINATION":"97.6553","FILE":"3523323","TLE_LINE2":"2 53088  97.6553  28.0044 0001704  78.7073   5.5248 15.59522523  1300","ECCENTRICITY":"0.00017040","MEAN_MOTION_DDOT":"0.0000000000000","TIME_SYSTEM":"UTC","MEAN_ANOMALY":"5.5248","EPHEMERIS_TYPE":"0","CENTER_NAME":"EARTH","LAUNCH_DATE":"2022-07-11"},{"OBJECT_NAME":"STARLINK-4063","COUNTRY_CODE":"US","OBJECT_TYPE":"PAYLOAD","CLASSIFICATION_TYPE":"U","PERIAPSIS":"349.020","FILE":"3523171","INCLINATION":"53.2171","APOAPSIS":"350.508","EPHEMERIS_TYPE":"0","MEAN_ANOMALY":"225.4739","TIME_SYSTEM":"UTC","MEAN_MOTION_DDOT":"0.0000000000000","ECCENTRICITY":"0.00011060","TLE_LINE2":"2 53132  53.2171 355.7386 0001106  63.3047 225.4739 15.73198643  2273","LAUNCH_DATE":"2022-07-17","CENTER_NAME":"EARTH","RCS_SIZE":null,"MEAN_MOTION":"15.73198643","ARG_OF_PERICENTER":"63.3047","PERIOD":"91.533","TLE_LINE1":"1 53132U 22083A   22208.91667824  .00005589  00000-0  44212-4 0  9990","REV_AT_EPOCH":"227","BSTAR":"0.00004421200000","MEAN_ELEMENT_THEORY":"SGP4","DECAY_DATE":null,"SITE":"AFETR","OBJECT_ID":"2022-083A","MEAN_MOTION_DOT":"0.00005589","EPOCH":"2022-07-27T22:00:00.999936","NORAD_CAT_ID":"53132","GP_ID":"208973687","RA_OF_ASC_NODE":"355.7386","SEMIMAJOR_AXIS":"6727.899","REF_FRAME":"TEME","ELEMENT_SET_NO":"999"},{"PERIAPSIS":"347.250","COUNTRY_CODE":"US","OBJECT_TYPE":"PAYLOAD","CLASSIFICATION_TYPE":"U","OBJECT_NAME":"STARLINK-4154","INCLINATION":"53.2173","APOAPSIS":"352.249","FILE":"3523179","MEAN_MOTION_DDOT":"0.0000000000000","TIME_SYSTEM":"UTC","ECCENTRICITY":"0.00037150","TLE_LINE2":"2 53133  53.2173 355.7469 0003715 292.7686 352.4281 15.73203796  2272","EPHEMERIS_TYPE":"0","MEAN_ANOMALY":"352.4281","LAUNCH_DATE":"2022-07-17","CENTER_NAME":"EARTH","ARG_OF_PERICENTER":"292.7686","RCS_SIZE":null,"MEAN_MOTION":"15.73203796","TLE_LINE1":"1 53133U 22083B   22208.91667824  .00001771  00000-0  17054-4 0  9994","PERIOD":"91.533","SITE":"AFETR","MEAN_MOTION_DOT":"0.00001771","EPOCH":"2022-07-27T22:00:00.999936","OBJECT_ID":"2022-083B","BSTAR":"0.00001705400000","MEAN_ELEMENT_THEORY":"SGP4","REV_AT_EPOCH":"227","DECAY_DATE":null,"SEMIMAJOR_AXIS":"6727.884","RA_OF_ASC_NODE":"355.7469","ELEMENT_SET_NO":"999","REF_FRAME":"TEME","GP_ID":"208973708","NORAD_CAT_ID":"53133"}];
